[{"OBJECT_NAME":"STARLINK-31073","OBJECT_ID":"2024-011J","EPOCH":"2026-03-09T23:30:04.766112","MEAN_MOTION":15.30197119,"ECCENTRICITY":0.00014483,"INCLINATION":53.1616,"RA_OF_ASC_NODE":12.3967,"ARG_OF_PERICENTER":99.5145,"MEAN_ANOMALY":260.602,"EPHEMERIS_TYPE":0,"CLASSIFICATION_TYPE":"U","NORAD_CAT_ID":58773,"ELEMENT_SET_NO":999,"REV_AT_EPOCH":12031,"BSTAR":4.4686768e-5,"MEAN_MOTION_DOT":9.64e-6,"MEAN_MOTION_DDOT":0},{"OBJECT_NAME":"OBJECT B","OBJECT_ID":"2024-205B","EPOCH":"2026-03-09T23:46:05.115936","MEAN_MOTION":15.28158697,"ECCENTRICITY":0.00105957,"INCLINATION":97.4192,"RA_OF_ASC_NODE":146.9311,"ARG_OF_PERICENTER":34.0947,"MEAN_ANOMALY":326.0972,"EPHEMERIS_TYPE":0,"CLASSIFICATION_TYPE":"U","NORAD_CAT_ID":61895,"ELEMENT_SET_NO":999,"REV_AT_EPOCH":7352,"BSTAR":0.00054154807,"MEAN_MOTION_DOT":0.00014827,"MEAN_MOTION_DDOT":0}]
